[{"OBJECT_NAME":"STARLINK-32152","OBJECT_ID":"2024-131W","EPOCH":"2026-03-09T09:00:13.373856","MEAN_MOTION":15.30192193,"ECCENTRICITY":0.00011505,"INCLINATION":53.1607,"RA_OF_ASC_NODE":53.6603,"ARG_OF_PERICENTER":77.1887,"MEAN_ANOMALY":282.9242,"EPHEMERIS_TYPE":0,"CLASSIFICATION_TYPE":"U","NORAD_CAT_ID":60275,"ELEMENT_SET_NO":999,"REV_AT_EPOCH":9157,"BSTAR":8.982609e-6,"MEAN_MOTION_DOT":-9.3e-7,"MEAN_MOTION_DDOT":0},{"OBJECT_NAME":"HAWK-11A","OBJECT_ID":"2024-247F","EPOCH":"2026-03-09T12:17:43.893312","MEAN_MOTION":15.28849427,"ECCENTRICITY":0.00054663,"INCLINATION":44.9941,"RA_OF_ASC_NODE":114.3328,"ARG_OF_PERICENTER":327.3713,"MEAN_ANOMALY":32.6832,"EPHEMERIS_TYPE":0,"CLASSIFICATION_TYPE":"U","NORAD_CAT_ID":62382,"ELEMENT_SET_NO":999,"REV_AT_EPOCH":6774,"BSTAR":0.00034106017,"MEAN_MOTION_DOT":9.457e-5,"MEAN_MOTION_DDOT":0}]
