STARLINK-32152          
1 60275U 24131W   26068.37515479 -.00000093  00000+0  89826-5 0  9994
2 60275  53.1607  53.6603 0001150  77.1887 282.9242 15.30192193 91577
HAWK-11A                
1 62382U 24247F   26068.51231358  .00009457  00000+0  34106-3 0  9991
2 62382  44.9941 114.3328 0005466 327.3713  32.6832 15.28849427 67741
